NORAD_CAT_ID,OBJECT_NAME,OBJECT_TYPE,EPOCH,MEAN_MOTION,ECCENTRICITY,INCLINATION,RA_OF_ASC_NODE,ARG_OF_PERICENTER,MEAN_ANOMALY,BSTAR,MEAN_MOTION_DOT,MEAN_MOTION_DDOT,TLE_LINE0,TLE_LINE1,TLE_LINE2,SEMIMAJOR_AXIS,PERIOD,APOGEE,PERIGEE,DECAYED
53623.0,STARLINK-4573,PAYLOAD,2024-05-10 20:04:53,15.08852019,0.0001408,53.2194,352.1034,114.8624,245.2515,0.00038425,5.835e-05,0.0,0 STARLINK-4573,1 53623U 22104AM  24131.83673121  .00005835  00000-0  38425-3 0  9996,2 53623  53.2194 352.1034 0001408 114.8624 245.2515 15.08852019 94244,6917.844,95.437,540.683,538.735,0.0
53623.0,STARLINK-4573,PAYLOAD,2024-05-10 21:40:16,15.08852648,0.0001134,53.2186,351.8046,97.1702,262.9419,0.00039111,5.944e-05,0.0,0 STARLINK-4573,1 53623U 22104AM  24131.90297092  .00005944  00000-0  39111-3 0  9997,2 53623  53.2186 351.8046 0001134  97.1702 262.9419 15.08852648 94933,6917.842,95.437,540.491,538.922,0.0
53623.0,STARLINK-4573,PAYLOAD,2024-05-11 21:31:03,15.08810956,0.0001515,53.2185,347.3445,95.9131,264.2034,-0.001322,-0.00021249,0.0,0 STARLINK-4573,1 53623U 22104AM  24132.89656622 -.00021249  00000-0 -13220-2 0  9994,2 53623  53.2185 347.3445 0001515  95.9131 264.2034 15.08810956 94406,6917.969,95.439,540.882,538.786,0.0
53623.0,STARLINK-4573,PAYLOAD,2024-05-12 07:03:23,15.08775341,0.0001514,53.2193,345.5625,88.4791,271.6375,-0.002275,-0.00036249,0.0,0 STARLINK-4573,1 53623U 22104AM  24133.29402005 -.00036249  00000-0 -22750-2 0  9997,2 53623  53.2193 345.5625 0001514  88.4791 271.6375 15.08775341 94467,6918.078,95.442,540.99,538.896,0.0
53623.0,STARLINK-4573,PAYLOAD,2024-05-12 21:21:53,15.0880005,0.0001558,53.2182,342.8853,91.0734,269.0437,0.0014978,0.00023604,0.0,0 STARLINK-4573,1 53623U 22104AM  24133.89020780  .00023604  00000-0  14978-2 0  9991,2 53623  53.2182 342.8853 0001558  91.0734 269.0437 15.08800050 94559,6918.003,95.44,540.945,538.79,0.0
53623.0,STARLINK-4573,PAYLOAD,2024-05-13 06:54:13,15.08818338,0.0001456,53.2177,341.1023,101.206,258.9096,0.0019769,0.00031296,0.0,0 STARLINK-4573,1 53623U 22104AM  24134.28765590  .00031296  00000-0  19769-2 0  9999,2 53623  53.2177 341.1023 0001456 101.2060 258.9096 15.08818338 95295,6917.947,95.439,540.819,538.804,0.0
53623.0,STARLINK-4573,PAYLOAD,2024-05-13 22:48:03,15.08863018,0.0001295,53.2171,338.1286,101.1655,258.9483,0.00098162,0.00015379,0.0,0 STARLINK-4573,1 53623U 22104AM  24134.95004567  .00015379  00000-0  98162-3 0  9992,2 53623  53.2171 338.1286 0001295 101.1655 258.9483 15.08863018 94717,6917.81,95.436,540.571,538.779,0.0
53623.0,STARLINK-4573,PAYLOAD,2024-05-14 13:06:31,15.08880198,0.0001312,53.2164,335.4526,98.868,261.2461,0.00090388,0.00014142,0.0,0 STARLINK-4573,1 53623U 22104AM  24135.54619266  .00014142  00000-0  90388-3 0  9995,2 53623  53.2164 335.4526 0001312  98.8680 261.2461 15.08880198 95482,6917.758,95.435,540.53,538.715,0.0
53623.0,STARLINK-4573,PAYLOAD,2024-05-14 19:28:03,15.08878804,0.0001409,53.2174,334.2622,95.8318,264.2835,0.00066581,0.00010335,0.0,0 STARLINK-4573,1 53623U 22104AM  24135.81114793  .00010335  00000-0  66581-3 0  9998,2 53623  53.2174 334.2622 0001409  95.8318 264.2835 15.08878804 94847,6917.762,95.435,540.601,538.652,0.0
53623.0,STARLINK-4573,PAYLOAD,2024-05-15 19:18:48,15.08874014,7.06e-05,53.2154,329.8003,115.4314,244.6751,0.00039664,6.036e-05,0.0,0 STARLINK-4573,1 53623U 22104AM  24136.80473011  .00006036  00000-0  39664-3 0  9994,2 53623  53.2154 329.8003 0000706 115.4314 244.6751 15.08874014 94996,6917.776,95.435,540.13,539.153,0.0
53623.0,STARLINK-4573,PAYLOAD,2024-05-16 06:26:30,15.08868645,0.0001029,53.2167,327.72,96.5706,263.5404,0.00023671,3.484e-05,0.0,0 STARLINK-4573,1 53623U 22104AM  24137.26840433  .00003484  00000-0  23671-3 0  9996,2 53623  53.2167 327.7200 0001029  96.5706 263.5404 15.08868645 95066,6917.793,95.436,540.37,538.946,0.0
53623.0,STARLINK-4573,PAYLOAD,2024-05-16 19:09:35,15.08846458,0.0001668,53.2161,325.3401,99.0084,261.1097,-0.00013682,-2.465e-05,0.0,0 STARLINK-4573,1 53623U 22104AM  24137.79833150 -.00002465  00000-0 -13682-3 0  9993,2 53623  53.2161 325.3401 0001668  99.0084 261.1097 15.08846458 95142,6917.861,95.437,540.88,538.572,0.0
53623.0,STARLINK-4573,PAYLOAD,2024-05-16 22:20:22,15.08840512,0.0001412,53.2196,324.7456,101.2951,258.82,-0.00024924,-4.252e-05,0.0,0 STARLINK-4573,1 53623U 22104AM  24137.93081166 -.00004252  00000-0 -24924-3 0  9998,2 53623  53.2196 324.7456 0001412 101.2951 258.8200 15.08840512 95840,6917.879,95.438,540.721,538.767,0.0
53623.0,STARLINK-4573,PAYLOAD,2024-05-17 12:38:50,15.08831793,0.0001719,53.2175,322.0695,120.0459,240.0703,-4.4404e-06,-3.59e-06,0.0,0 STARLINK-4573,1 53623U 22104AM  24138.52697788 -.00000359  00000-0 -44404-5 0  9998,2 53623  53.2175 322.0695 0001719 120.0459 240.0703 15.08831793 95252,6917.905,95.438,540.96,538.581,0.0
53623.0,STARLINK-4573,PAYLOAD,2024-05-17 19:00:23,15.08822546,7.18e-05,53.2199,320.8815,58.9107,301.1956,-0.00024438,-4.173e-05,0.0,0 STARLINK-4573,1 53623U 22104AM  24138.79194386 -.00004173  00000-0 -24438-3 0  9994,2 53623  53.2199 320.8815 0000718  58.9107 301.1956 15.08822546 95294,6917.934,95.439,540.295,539.302,0.0
53623.0,STARLINK-4573,PAYLOAD,2024-05-18 04:32:42,15.0882995,0.0002757,53.2187,319.0972,92.5028,267.628,-2.8487e-05,-7.42e-06,0.0,0 STARLINK-4573,1 53623U 22104AM  24139.18938566 -.00000742  00000-0 -28487-4 0  9991,2 53623  53.2187 319.0972 0002757  92.5028 267.6280 15.08829950 95355,6917.911,95.438,541.683,537.869,0.0
53623.0,STARLINK-4573,PAYLOAD,2024-05-18 18:51:10,15.08846671,0.0001475,53.2171,316.4212,91.6248,268.4913,0.00043834,6.696e-05,0.0,0 STARLINK-4573,1 53623U 22104AM  24139.78554212  .00006696  00000-0  43834-3 0  9993,2 53623  53.2171 316.4212 0001475  91.6248 268.4913 15.08846671 95447,6917.86,95.437,540.745,538.705,0.0
53623.0,STARLINK-4573,PAYLOAD,2024-05-19 04:23:28,15.08861288,0.0001397,53.2166,314.635,82.6098,277.5053,0.00050233,7.72e-05,0.0,0 STARLINK-4573,1 53623U 22104AM  24140.18296855  .00007720  00000-0  50233-3 0  9995,2 53623  53.2166 314.6350 0001397  82.6098 277.5053 15.08861288 95504,6917.815,95.436,540.647,538.714,0.0
53623.0,STARLINK-4573,PAYLOAD,2024-05-19 12:20:26,15.08820085,0.0002175,53.2178,313.1492,87.2684,272.8557,-4.3312e-05,-9.77e-06,0.0,0 STARLINK-4573,1 53623U 22104AM  24140.51419221 -.00000977  00000-0 -43312-4 0  9996,2 53623  53.2178 313.1492 0002175  87.2684 272.8557 15.08820085 96233,6917.941,95.439,541.311,538.302,0.0
53623.0,STARLINK-4573,PAYLOAD,2024-05-19 18:41:58,15.08839401,0.0001824,53.2169,311.9597,82.1994,277.9205,0.00015457,2.173e-05,0.0,0 STARLINK-4573,1 53623U 22104AM  24140.77914401  .00002173  00000-0  15457-3 0  9990,2 53623  53.2169 311.9597 0001824  82.1994 277.9205 15.08839401 95599,6917.882,95.438,541.009,538.485,0.0
53623.0,STARLINK-4573,PAYLOAD,2024-05-19 21:52:44,15.08842976,0.000183,53.217,311.364,80.3678,279.752,0.00019007,2.738e-05,0.0,0 STARLINK-4573,1 53623U 22104AM  24140.91162236  .00002738  00000-0  19007-3 0  9999,2 53623  53.2170 311.3640 0001830  80.3678 279.7520 15.08842976 96299,6917.871,95.437,541.002,538.47,0.0
53623.0,STARLINK-4573,PAYLOAD,2024-05-20 20:08:08,15.08841014,0.0001572,53.2183,307.2003,77.4272,282.6896,-9.1883e-05,-1.75e-05,0.0,0 STARLINK-4573,1 53623U 22104AM  24141.83898571 -.00001750  00000-0 -91883-4 0  9997,2 53623  53.2183 307.2003 0001572  77.4272 282.6896 15.08841014 95751,6917.877,95.437,540.83,538.655,0.0
53623.0,STARLINK-4573,PAYLOAD,2024-05-21 00:54:16,15.08853234,0.0001215,53.2171,306.3066,97.5756,262.5375,0.00010668,1.411e-05,0.0,0 STARLINK-4573,1 53623U 22104AM  24142.03769632  .00001411  00000-0  10668-3 0  9998,2 53623  53.2171 306.3066 0001215  97.5756 262.5375 15.08853234 95780,6917.84,95.437,540.545,538.864,0.0
53623.0,STARLINK-4573,PAYLOAD,2024-05-21 18:23:32,15.08831555,0.000161,53.2188,303.0372,75.2014,284.9156,8.9658e-05,1.139e-05,0.0,0 STARLINK-4573,1 53623U 22104AM  24142.76635308  .00001139  00000-0  89658-4 0  9993,2 53623  53.2188 303.0372 0001610  75.2014 284.9156 15.08831555 95890,6917.906,95.438,540.885,538.657,0.0
53623.0,STARLINK-4573,PAYLOAD,2024-05-22 10:17:23,15.08843743,0.0001355,53.2179,300.0666,90.4762,269.6385,0.00030807,4.619e-05,0.0,0 STARLINK-4573,1 53623U 22104AM  24143.42874988  .00004619  00000-0  30807-3 0  9993,2 53623  53.2179 300.0666 0001355  90.4762 269.6385 15.08843743 95995,6917.869,95.437,540.671,538.797,0.0
53623.0,STARLINK-4573,PAYLOAD,2024-05-23 13:18:57,15.08841758,0.0001201,53.2184,295.0105,93.739,266.3739,0.0001109,1.478e-05,0.0,0 STARLINK-4573,1 53623U 22104AM  24144.55483176  .00001478  00000-0  11090-3 0  9996,2 53623  53.2184 295.0105 0001201  93.7390 266.3739 15.08841758 96166,6917.875,95.437,540.571,538.909,0.0
53623.0,STARLINK-4573,PAYLOAD,2024-05-23 14:54:20,15.08842234,0.0001185,53.2184,294.7131,94.5848,265.528,9.8711e-05,1.284e-05,0.0,0 STARLINK-4573,1 53623U 22104AM  24144.62107178  .00001284  00000-0  98711-4 0  9990,2 53623  53.2184 294.7131 0001185  94.5848 265.5280 15.08842234 96857,6917.874,95.437,540.558,538.919,0.0
53623.0,STARLINK-4573,PAYLOAD,2024-05-23 16:29:43,15.08843779,0.0001205,53.2179,294.4152,94.337,265.7759,0.00012318,1.673e-05,0.0,0 STARLINK-4573,1 53623U 22104AM  24144.68731091  .00001673  00000-0  12318-3 0  9993,2 53623  53.2179 294.4152 0001205  94.3370 265.7759 15.08843779 96861,6917.869,95.437,540.567,538.9,0.0
53623.0,STARLINK-4573,PAYLOAD,2024-05-24 14:45:07,15.08842733,0.0001234,53.2172,290.2518,89.3638,270.7495,0.00014438,2.011e-05,0.0,0 STARLINK-4573,1 53623U 22104AM  24145.61467067  .00002011  00000-0  14438-3 0  9998,2 53623  53.2172 290.2518 0001234  89.3638 270.7495 15.08842733 97006,6917.872,95.437,540.591,538.883,0.0
53623.0,STARLINK-4573,PAYLOAD,2024-05-24 19:31:16,15.08844809,0.0001233,53.2169,289.3591,91.7821,268.3312,0.00015701,2.212e-05,0.0,0 STARLINK-4573,1 53623U 22104AM  24145.81338907  .00002212  00000-0  15701-3 0  9997,2 53623  53.2169 289.3591 0001233  91.7821 268.3312 15.08844809 96356,6917.866,95.437,540.584,538.878,0.0
